[{"OBJECT_NAME":"YUNHAI-2 01B","OBJECT_ID":"2018-112B","EPOCH":"2026-03-09T18:01:16.468320","MEAN_MOTION":14.28967374,"ECCENTRICITY":0.00050306,"INCLINATION":50.0104,"RA_OF_ASC_NODE":169.9221,"ARG_OF_PERICENTER":231.5656,"MEAN_ANOMALY":128.4808,"EPHEMERIS_TYPE":0,"CLASSIFICATION_TYPE":"U","NORAD_CAT_ID":43910,"ELEMENT_SET_NO":999,"REV_AT_EPOCH":37602,"BSTAR":7.0397417e-5,"MEAN_MOTION_DOT":1.8e-7,"MEAN_MOTION_DDOT":0},{"OBJECT_NAME":"FENGYUN 1C DEB","OBJECT_ID":"1999-025BQQ","EPOCH":"2026-03-07T15:13:48.391104","MEAN_MOTION":14.38895162,"ECCENTRICITY":0.0092111,"INCLINATION":98.4501,"RA_OF_ASC_NODE":125.6697,"ARG_OF_PERICENTER":224.0357,"MEAN_ANOMALY":289.5194,"EPHEMERIS_TYPE":0,"CLASSIFICATION_TYPE":"U","NORAD_CAT_ID":31336,"ELEMENT_SET_NO":999,"REV_AT_EPOCH":99011,"BSTAR":0.00039362,"MEAN_MOTION_DOT":1.228e-5,"MEAN_MOTION_DDOT":0}]
